{
  "type": "FeatureCollection",
  "features": [
    {
      "type": "Feature",
      "properties": {
        "norad_id": 33860,
        "name": "IRIDIUM 33 DEB",
        "group": "iridium-33-debris",
        "lat": -18.17891845545387,
        "lon": -157.07219910153268,
        "alt_km": 675.6893362170995,
        "timestamp": "2025-12-25T03:55:56.751418+00:00",
        "meta_object_name": "IRIDIUM 33 DEB",
        "meta_object_id": "1997-051AD",
        "meta_epoch": "2025-12-24T12:59:38.336352",
        "meta_mean_motion": 14.67504611,
        "meta_eccentricity": 0.0006085,
        "meta_inclination": 86.3822,
        "meta_ra_of_asc_node": 22.0129,
        "meta_arg_of_pericenter": 311.3262,
        "meta_mean_anomaly": 200.6333,
        "meta_ephemeris_type": 0,
        "meta_classification_type": "U",
        "meta_norad_cat_id": 33860,
        "meta_element_set_no": 999,
        "meta_rev_at_epoch": 88895,
        "meta_bstar": 0.0011545,
        "meta_mean_motion_dot": 6.566e-05,
        "meta_mean_motion_ddot": 0,
        "tle_line1": "1 33860U 97051AD  25358.54141593  .00006566  00000+0  11545-2 0  9997",
        "tle_line2": "2 33860  86.3822  22.0129 0006085 311.3262 200.6333 14.67504611888954"
      },
      "geometry": {
        "type": "Point",
        "coordinates": [
          -157.07219910153268,
          -18.17891845545387
        ]
      }
    },
    {
      "type": "Feature",
      "properties": {
        "norad_id": 33862,
        "name": "IRIDIUM 33 DEB",
        "group": "iridium-33-debris",
        "lat": -31.937630939755408,
        "lon": 29.806249393240122,
        "alt_km": 649.4083933240308,
        "timestamp": "2025-12-25T03:55:56.751430+00:00",
        "meta_object_name": "IRIDIUM 33 DEB",
        "meta_object_id": "1997-051AF",
        "meta_epoch": "2025-12-24T20:41:22.554240",
        "meta_mean_motion": 14.69665341,
        "meta_eccentricity": 0.0052137,
        "meta_inclination": 86.4081,
        "meta_ra_of_asc_node": 32.1834,
        "meta_arg_of_pericenter": 28.4206,
        "meta_mean_anomaly": 144.5515,
        "meta_ephemeris_type": 0,
        "meta_classification_type": "U",
        "meta_norad_cat_id": 33862,
        "meta_element_set_no": 999,
        "meta_rev_at_epoch": 89001,
        "meta_bstar": 0.0015264,
        "meta_mean_motion_dot": 9.3e-05,
        "meta_mean_motion_ddot": 0,
        "tle_line1": "1 33862U 97051AF  25358.86206660  .00009300  00000+0  15264-2 0  9992",
        "tle_line2": "2 33862  86.4081  32.1834 0052137  28.4206 144.5515 14.69665341890010"
      },
      "geometry": {
        "type": "Point",
        "coordinates": [
          29.806249393240122,
          -31.937630939755408
        ]
      }
    },
    {
      "type": "Feature",
      "properties": {
        "norad_id": 33866,
        "name": "IRIDIUM 33 DEB",
        "group": "iridium-33-debris",
        "lat": -37.75957380352685,
        "lon": -89.34766059290367,
        "alt_km": 821.2940263180717,
        "timestamp": "2025-12-25T03:55:56.751442+00:00",
        "meta_object_name": "IRIDIUM 33 DEB",
        "meta_object_id": "1997-051AK",
        "meta_epoch": "2025-12-24T05:18:24.789600",
        "meta_mean_motion": 14.25308834,
        "meta_eccentricity": 0.01151675,
        "meta_inclination": 86.2998,
        "meta_ra_of_asc_node": 88.1782,
        "meta_arg_of_pericenter": 125.0108,
        "meta_mean_anomaly": 297.1941,
        "meta_ephemeris_type": 0,
        "meta_classification_type": "U",
        "meta_norad_cat_id": 33866,
        "meta_element_set_no": 999,
        "meta_rev_at_epoch": 86974,
        "meta_bstar": 0.0005658111,
        "meta_mean_motion_dot": 1.447e-05,
        "meta_mean_motion_ddot": 0,
        "tle_line1": "1 33866U 97051AK  25358.22112025  .00001447  00000+0  56581-3 0  9999",
        "tle_line2": "2 33866  86.2998  88.1782 0115167 125.0108 297.1941 14.25308834869747"
      },
      "geometry": {
        "type": "Point",
        "coordinates": [
          -89.34766059290367,
          -37.75957380352685
        ]
      }
    },
    {
      "type": "Feature",
      "properties": {
        "norad_id": 33870,
        "name": "IRIDIUM 33 DEB",
        "group": "iridium-33-debris",
        "lat": 25.123447178720006,
        "lon": -128.76959213426247,
        "alt_km": 722.8993998472224,
        "timestamp": "2025-12-25T03:55:56.751453+00:00",
        "meta_object_name": "IRIDIUM 33 DEB",
        "meta_object_id": "1997-051AP",
        "meta_epoch": "2025-12-24T16:08:59.745408",
        "meta_mean_motion": 14.45908486,
        "meta_eccentricity": 0.0022611,
        "meta_inclination": 86.3733,
        "meta_ra_of_asc_node": 53.1452,
        "meta_arg_of_pericenter": 140.286,
        "meta_mean_anomaly": 340.5281,
        "meta_ephemeris_type": 0,
        "meta_classification_type": "U",
        "meta_norad_cat_id": 33870,
        "meta_element_set_no": 999,
        "meta_rev_at_epoch": 88309,
        "meta_bstar": 0.00069262,
        "meta_mean_motion_dot": 2.489e-05,
        "meta_mean_motion_ddot": 0,
        "tle_line1": "1 33870U 97051AP  25358.67291372  .00002489  00000+0  69262-3 0  9993",
        "tle_line2": "2 33870  86.3733  53.1452 0022611 140.2860 340.5281 14.45908486883096"
      },
      "geometry": {
        "type": "Point",
        "coordinates": [
          -128.76959213426247,
          25.123447178720006
        ]
      }
    },
    {
      "type": "Feature",
      "properties": {
        "norad_id": 33881,
        "name": "IRIDIUM 33 DEB",
        "group": "iridium-33-debris",
        "lat": 34.43895409136818,
        "lon": -81.14149178336969,
        "alt_km": 658.8854397543982,
        "timestamp": "2025-12-25T03:55:56.751464+00:00",
        "meta_object_name": "IRIDIUM 33 DEB",
        "meta_object_id": "1997-051BA",
        "meta_epoch": "2025-12-24T19:37:00.348960",
        "meta_mean_motion": 14.5678795,
        "meta_eccentricity": 0.0061116,
        "meta_inclination": 86.3859,
        "meta_ra_of_asc_node": 101.4931,
        "meta_arg_of_pericenter": 135.6601,
        "meta_mean_anomaly": 353.6403,
        "meta_ephemeris_type": 0,
        "meta_classification_type": "U",
        "meta_norad_cat_id": 33881,
        "meta_element_set_no": 999,
        "meta_rev_at_epoch": 87676,
        "meta_bstar": 0.0022056,
        "meta_mean_motion_dot": 0.0001015,
        "meta_mean_motion_ddot": 0,
        "tle_line1": "1 33881U 97051BA  25358.81736515  .00010150  00000+0  22056-2 0  9997",
        "tle_line2": "2 33881  86.3859 101.4931 0061116 135.6601 353.6403 14.56787950876760"
      },
      "geometry": {
        "type": "Point",
        "coordinates": [
          -81.14149178336969,
          34.43895409136818
        ]
      }
    },
    {
      "type": "Feature",
      "properties": {
        "norad_id": 33884,
        "name": "IRIDIUM 33 DEB",
        "group": "iridium-33-debris",
        "lat": -56.0848259248614,
        "lon": -1.2097780528653816,
        "alt_km": 638.3775889850267,
        "timestamp": "2025-12-25T03:55:56.751476+00:00",
        "meta_object_name": "IRIDIUM 33 DEB",
        "meta_object_id": "1997-051BD",
        "meta_epoch": "2025-12-24T07:08:21.813216",
        "meta_mean_motion": 14.77652131,
        "meta_eccentricity": 0.00088851,
        "meta_inclination": 86.3696,
        "meta_ra_of_asc_node": 4.5998,
        "meta_arg_of_pericenter": 278.0535,
        "meta_mean_anomaly": 99.9801,
        "meta_ephemeris_type": 0,
        "meta_classification_type": "U",
        "meta_norad_cat_id": 33884,
        "meta_element_set_no": 999,
        "meta_rev_at_epoch": 89018,
        "meta_bstar": 0.0016922324,
        "meta_mean_motion_dot": 0.00012148,
        "meta_mean_motion_ddot": 0,
        "tle_line1": "1 33884U 97051BD  25358.29747469  .00012148  00000+0  16922-2 0  9996",
        "tle_line2": "2 33884  86.3696   4.5998 0008885 278.0535  99.9801 14.77652131890189"
      },
      "geometry": {
        "type": "Point",
        "coordinates": [
          -1.2097780528653816,
          -56.0848259248614
        ]
      }
    },
    {
      "type": "Feature",
      "properties": {
        "norad_id": 33886,
        "name": "IRIDIUM 33 DEB",
        "group": "iridium-33-debris",
        "lat": 3.3480041134294676,
        "lon": -118.21307930840692,
        "alt_km": 765.1805955312384,
        "timestamp": "2025-12-25T03:55:56.751487+00:00",
        "meta_object_name": "IRIDIUM 33 DEB",
        "meta_object_id": "1997-051BF",
        "meta_epoch": "2025-12-24T15:56:50.085312",
        "meta_mean_motion": 14.36065178,
        "meta_eccentricity": 0.0013426,
        "meta_inclination": 86.382,
        "meta_ra_of_asc_node": 62.2092,
        "meta_arg_of_pericenter": 199.3709,
        "meta_mean_anomaly": 277.1189,
        "meta_ephemeris_type": 0,
        "meta_classification_type": "U",
        "meta_norad_cat_id": 33886,
        "meta_element_set_no": 999,
        "meta_rev_at_epoch": 88223,
        "meta_bstar": 0.00018007,
        "meta_mean_motion_dot": 5.44e-06,
        "meta_mean_motion_ddot": 0,
        "tle_line1": "1 33886U 97051BF  25358.66446858  .00000544  00000+0  18007-3 0  9991",
        "tle_line2": "2 33886  86.3820  62.2092 0013426 199.3709 277.1189 14.36065178882231"
      },
      "geometry": {
        "type": "Point",
        "coordinates": [
          -118.21307930840692,
          3.3480041134294676
        ]
      }
    }
  ]
}